NORAD_CAT_ID,OBJECT_NAME,OBJECT_TYPE,EPOCH,MEAN_MOTION,ECCENTRICITY,INCLINATION,RA_OF_ASC_NODE,ARG_OF_PERICENTER,MEAN_ANOMALY,BSTAR,MEAN_MOTION_DOT,MEAN_MOTION_DDOT,TLE_LINE0,TLE_LINE1,TLE_LINE2,SEMIMAJOR_AXIS,PERIOD,APOGEE,PERIGEE,DECAYED
53818.0,STARLINK-4749,PAYLOAD,2023-07-28 07:25:08,15.21308106,0.0003736,53.2217,265.9075,60.9118,299.2254,0.0010828,0.0002429,0.0,0 STARLINK-4749,1 53818U 22114A   23209.30912196  .00024290  00000-0  10828-2 0  9990,2 53818  53.2217 265.9075 0003736  60.9118 299.2254 15.21308106 48805,6880.031,94.655,504.466,499.326,0.0
53818.0,STARLINK-4749,PAYLOAD,2023-07-28 15:18:08,15.21323304,0.0003758,53.2217,264.4046,61.172,298.9654,0.0010545,0.00023655,0.0,0 STARLINK-4749,1 53818U 22114A   23209.63760397  .00023655  00000-0  10545-2 0  9990,2 53818  53.2217 264.4046 0003758  61.1720 298.9654 15.21323304 48215,6879.985,94.654,504.436,499.265,0.0
53818.0,STARLINK-4749,PAYLOAD,2023-07-30 09:52:20,15.2140639,0.0003824,53.2222,256.2885,64.0787,296.0605,0.00095701,0.00021485,0.0,0 STARLINK-4749,1 53818U 22114A   23211.41134702  .00021485  00000-0  95701-3 0  9991,2 53818  53.2222 256.2885 0003824  64.0787 296.0605 15.21406390 48481,6879.735,94.649,504.23,498.969,0.0
53818.0,STARLINK-4749,PAYLOAD,2023-07-31 12:40:27,15.21455688,0.0003913,53.2222,251.1786,64.2729,295.8673,0.00094284,0.00021192,0.0,0 STARLINK-4749,1 53818U 22114A   23212.52809981  .00021192  00000-0  94284-3 0  9992,2 53818  53.2222 251.1786 0003913  64.2729 295.8673 15.21455688 48657,6879.586,94.646,504.143,498.759,0.0
53818.0,STARLINK-4749,PAYLOAD,2023-08-02 08:49:02,15.21522153,0.0003909,53.2221,242.7599,68.6048,291.5367,0.00076507,0.00017158,0.0,0 STARLINK-4749,1 53818U 22114A   23214.36738650  .00017158  00000-0  76507-3 0  9995,2 53818  53.2221 242.7599 0003909  68.6048 291.5367 15.21522153 48937,6879.386,94.642,503.94,498.561,0.0
53818.0,STARLINK-4749,PAYLOAD,2023-08-03 08:27:53,15.21487412,0.0003634,53.2221,238.25,66.818,293.3201,-0.0005405,-0.0001262,0.0,0 STARLINK-4749,1 53818U 22114A   23215.35270833 -.00012620  00000-0 -54050-3 0  9999,2 53818  53.2221 238.2500 0003634  66.8180 293.3201 15.21487412 49083,6879.49,94.644,503.855,498.855,0.0
53818.0,STARLINK-4749,PAYLOAD,2023-08-03 13:11:41,15.21472338,0.0003675,53.2223,237.3479,70.8838,289.2558,-0.00066197,-0.0001537,0.0,0 STARLINK-4749,1 53818U 22114A   23215.54978094 -.00015370  00000-0 -66197-3 0  9994,2 53818  53.2223 237.3479 0003675  70.8838 289.2558 15.21472338 49114,6879.536,94.645,503.929,498.873,0.0
53818.0,STARLINK-4749,PAYLOAD,2023-08-04 08:06:51,15.21404079,0.0003048,53.2225,233.7403,66.4805,293.6513,-0.000395,-9.292e-05,0.0,0 STARLINK-4749,1 53818U 22114A   23216.33809059 -.00009292  00000-0 -39500-3 0  9990,2 53818  53.2225 233.7403 0003048  66.4805 293.6513 15.21404079 49232,6879.742,94.649,503.704,499.51,0.0
53818.0,STARLINK-4749,PAYLOAD,2023-08-04 12:50:38,15.21397549,0.0003326,53.2232,232.8383,82.6616,277.4759,-0.00068464,-0.00015849,0.0,0 STARLINK-4749,1 53818U 22114A   23216.53517032 -.00015849  00000-0 -68464-3 0  9995,2 53818  53.2232 232.8383 0003326  82.6616 277.4759 15.21397549 49264,6879.761,94.65,503.914,499.338,0.0
53818.0,STARLINK-4749,PAYLOAD,2023-08-05 06:11:15,15.21342266,0.0002763,53.223,229.5356,78.506,281.6248,-0.00067257,-0.0001555,0.0,0 STARLINK-4749,1 53818U 22114A   23217.25782280 -.00015550  00000-0 -67257-3 0  9992,2 53818  53.2230 229.5356 0002763  78.5060 281.6248 15.21342266 49374,6879.928,94.653,503.694,499.892,0.0
53818.0,STARLINK-4749,PAYLOAD,2023-08-05 14:04:17,15.21303512,0.0002828,53.2234,228.0289,87.3777,272.7544,-0.00093562,-0.00021463,0.0,0 STARLINK-4749,1 53818U 22114A   23217.58631290 -.00021463  00000-0 -93562-3 0  9990,2 53818  53.2234 228.0289 0002828  87.3777 272.7544 15.21303512 49429,6880.045,94.656,503.855,499.964,0.0
53818.0,STARLINK-4749,PAYLOAD,2023-08-06 10:34:10,15.21265694,0.0002647,53.2236,224.122,85.7116,274.4185,-0.00058881,-0.00013627,0.0,0 STARLINK-4749,1 53818U 22114A   23218.44039782 -.00013627  00000-0 -58881-3 0  9992,2 53818  53.2236 224.1220 0002647  85.7116 274.4185 15.21265694 49553,6880.159,94.658,503.845,500.203,0.0
53818.0,STARLINK-4749,PAYLOAD,2023-08-06 12:08:47,15.21259591,0.0002764,53.2239,223.8195,84.7164,275.4149,-0.00070114,-0.00016157,0.0,0 STARLINK-4749,1 53818U 22114A   23218.50610051 -.00016157  00000-0 -70114-3 0  9997,2 53818  53.2239 223.8195 0002764  84.7164 275.4149 15.21259591 49566,6880.177,94.658,503.944,500.14,0.0
53818.0,STARLINK-4749,PAYLOAD,2023-08-07 10:13:20,15.2118283,0.0002684,53.224,219.6136,90.4281,269.7025,-0.00076063,-0.00017458,0.0,0 STARLINK-4749,1 53818U 22114A   23219.42593735 -.00017458  00000-0 -76063-3 0  9992,2 53818  53.2240 219.6136 0002684  90.4281 269.7025 15.21182830 49707,6880.409,94.663,504.12,500.427,0.0
53818.0,STARLINK-4749,PAYLOAD,2023-08-07 13:22:35,15.21166303,0.0002625,53.2245,219.0117,88.0209,272.109,-0.00084999,-0.00019455,0.0,0 STARLINK-4749,1 53818U 22114A   23219.55734966 -.00019455  00000-0 -84999-3 0  9995,2 53818  53.2245 219.0117 0002625  88.0209 272.1090 15.21166303 49722,6880.458,94.664,504.13,500.517,0.0
53818.0,STARLINK-4749,PAYLOAD,2023-08-08 01:59:30,15.21132828,0.0002461,53.2235,216.607,88.3616,271.7664,-0.00078058,-0.0001788,0.0,0 STARLINK-4749,1 53818U 22114A   23220.08299764 -.00017880  00000-0 -78058-3 0  9996,2 53818  53.2235 216.6070 0002461  88.3616 271.7664 15.21132828 49801,6880.559,94.666,504.118,500.731,0.0
53818.0,STARLINK-4749,PAYLOAD,2023-08-08 08:18:00,15.21139572,0.0002479,53.2246,215.4057,93.4902,266.638,-0.00038947,-9.097e-05,0.0,0 STARLINK-4749,1 53818U 22114A   23220.34583396 -.00009097  00000-0 -38947-3 0  9996,2 53818  53.2246 215.4057 0002479  93.4902 266.6380 15.21139572 49844,6880.539,94.666,504.11,500.698,0.0
53818.0,STARLINK-4749,PAYLOAD,2023-08-08 16:11:06,15.21108032,0.0002492,53.2245,213.9033,90.9952,269.1331,-0.00051259,-0.00011854,0.0,0 STARLINK-4749,1 53818U 22114A   23220.67438435 -.00011854  00000-0 -51259-3 0  9990,2 53818  53.2245 213.9033 0002492  90.9952 269.1331 15.21108032 49898,6880.634,94.668,504.214,500.785,0.0
53818.0,STARLINK-4749,PAYLOAD,2023-08-09 00:04:12,15.2108508,0.0002688,53.2257,212.4036,91.6711,268.4594,-0.00039211,-9.142e-05,0.0,0 STARLINK-4749,1 53818U 22114A   23221.00292456 -.00009142  00000-0 -39211-3 0  9990,2 53818  53.2257 212.4036 0002688  91.6711 268.4594 15.21085080 49942,6880.703,94.669,504.418,500.719,0.0
53818.0,STARLINK-4749,PAYLOAD,2023-08-09 06:22:42,15.21056583,0.0002466,53.2249,211.1987,93.9897,266.1382,-0.00041314,-9.606e-05,0.0,0 STARLINK-4749,1 53818U 22114A   23221.26576875 -.00009606  00000-0 -41314-3 0  9990,2 53818  53.2249 211.1987 0002466  93.9897 266.1382 15.21056583 49988,6880.789,94.671,504.351,500.958,0.0
53818.0,STARLINK-4749,PAYLOAD,2023-08-09 15:50:27,15.21023173,0.0002482,53.224,209.3967,97.9663,262.1616,-0.00047421,-0.00010966,0.0,0 STARLINK-4749,1 53818U 22114A   23221.66004164 -.00010966  00000-0 -47421-3 0  9997,2 53818  53.2240 209.3967 0002482  97.9663 262.1616 15.21023173 50043,6880.89,94.673,504.463,501.047,0.0
53818.0,STARLINK-4749,PAYLOAD,2023-08-10 06:02:04,15.20996281,0.000379,53.2255,206.6913,101.7556,258.3867,-0.00032187,-7.547e-05,0.0,0 STARLINK-4749,1 53818U 22114A   23222.25143995 -.00007547  00000-0 -32187-3 0  9993,2 53818  53.2255 206.6913 0003790 101.7556 258.3867 15.20996281 50131,6880.971,94.675,505.444,500.228,0.0
53818.0,STARLINK-4749,PAYLOAD,2023-08-10 15:29:52,15.20942924,0.0002454,53.2253,204.888,94.7538,265.374,-0.00047166,-0.00010883,0.0,0 STARLINK-4749,1 53818U 22114A   23222.64574823 -.00010883  00000-0 -47166-3 0  9994,2 53818  53.2253 204.8880 0002454  94.7538 265.3740 15.20942924 50198,6881.132,94.678,504.686,501.308,0.0
53818.0,STARLINK-4749,PAYLOAD,2023-08-11 05:41:32,15.20912885,0.0003318,53.2245,202.1838,103.6165,256.5202,-0.00035959,-8.372e-05,0.0,0 STARLINK-4749,1 53818U 22114A   23223.23718265 -.00008372  00000-0 -35959-3 0  9997,2 53818  53.2245 202.1838 0003318 103.6165 256.5202 15.20912885 50287,6881.223,94.68,505.371,500.805,0.0
53818.0,STARLINK-4749,PAYLOAD,2023-08-11 15:09:22,15.20861651,0.0002407,53.2258,200.3814,97.2473,262.8798,-0.00046163,-0.00010634,0.0,0 STARLINK-4749,1 53818U 22114A   23223.63150775 -.00010634  00000-0 -46163-3 0  9990,2 53818  53.2258 200.3814 0002407  97.2473 262.8798 15.20861651 50344,6881.377,94.683,504.899,501.586,0.0
53818.0,STARLINK-4749,PAYLOAD,2023-08-12 02:11:49,15.20822309,0.0001353,53.2247,198.2769,99.0799,261.0352,-0.00041947,-9.682e-05,0.0,0 STARLINK-4749,1 53818U 22114A   23224.09154442 -.00009682  00000-0 -41947-3 0  9992,2 53818  53.2247 198.2769 0001353  99.0799 261.0352 15.20822309 50418,6881.496,94.686,504.292,502.43,0.0
53818.0,STARLINK-4749,PAYLOAD,2023-08-12 05:21:06,15.20803258,0.0002402,53.2249,197.6774,100.8079,259.3189,-0.0003506,-8.144e-05,0.0,0 STARLINK-4749,1 53818U 22114A   23224.22298754 -.00008144  00000-0 -35060-3 0  9993,2 53818  53.2249 197.6774 0002402 100.8079 259.3189 15.20803258 50439,6881.553,94.687,505.071,501.765,0.0
53818.0,STARLINK-4749,PAYLOAD,2023-08-12 14:48:56,15.2078021,0.0002423,53.2251,195.8754,102.2084,257.9185,-0.00044121,-0.00010155,0.0,0 STARLINK-4749,1 53818U 22114A   23224.61731947 -.00010155  00000-0 -44121-3 0  9995,2 53818  53.2251 195.8754 0002423 102.2084 257.9185 15.20780210 50493,6881.623,94.688,505.155,501.821,0.0
53818.0,STARLINK-4749,PAYLOAD,2023-08-13 00:16:47,15.20742145,0.0001393,53.2272,194.074,116.9453,243.1687,-0.00044603,-0.0001025,0.0,0 STARLINK-4749,1 53818U 22114A   23225.01166017 -.00010250  00000-0 -44603-3 0  9991,2 53818  53.2272 194.0740 0001393 116.9453 243.1687 15.20742145 50555,6881.738,94.691,504.561,502.644,0.0
53818.0,STARLINK-4749,PAYLOAD,2023-08-13 06:35:21,15.2072597,0.0002116,53.2242,192.8709,106.365,253.758,-0.00033062,-7.682e-05,0.0,0 STARLINK-4749,1 53818U 22114A   23225.27454909 -.00007682  00000-0 -33062-3 0  9991,2 53818  53.2242 192.8709 0002116 106.3650 253.7580 15.20725970 50599,6881.787,94.692,505.108,502.195,0.0
